[{"OBJECT_NAME":"TRANSPORTER-12 OBJECT AZ","OBJECT_ID":"2025-009AZ","EPOCH":"2026-03-09T17:02:46.667040","MEAN_MOTION":15.30349724,"ECCENTRICITY":9.87e-5,"INCLINATION":97.3981,"RA_OF_ASC_NODE":151.9913,"ARG_OF_PERICENTER":45.3581,"MEAN_ANOMALY":314.774,"EPHEMERIS_TYPE":0,"CLASSIFICATION_TYPE":"U","NORAD_CAT_ID":62656,"ELEMENT_SET_NO":999,"REV_AT_EPOCH":6379,"BSTAR":0.00054902545,"MEAN_MOTION_DOT":0.00016057,"MEAN_MOTION_DDOT":0},{"OBJECT_NAME":"STARLINK-34196","OBJECT_ID":"2025-189B","EPOCH":"2026-03-09T15:38:19.592160","MEAN_MOTION":15.3017852,"ECCENTRICITY":0.00011134,"INCLINATION":53.1598,"RA_OF_ASC_NODE":206.7304,"ARG_OF_PERICENTER":49.2578,"MEAN_ANOMALY":310.8519,"EPHEMERIS_TYPE":0,"CLASSIFICATION_TYPE":"U","NORAD_CAT_ID":65324,"ELEMENT_SET_NO":999,"REV_AT_EPOCH":3105,"BSTAR":0.00042843396,"MEAN_MOTION_DOT":0.00012343,"MEAN_MOTION_DDOT":0}]
